NORAD_CAT_ID,OBJECT_NAME,OBJECT_TYPE,EPOCH,MEAN_MOTION,ECCENTRICITY,INCLINATION,RA_OF_ASC_NODE,ARG_OF_PERICENTER,MEAN_ANOMALY,BSTAR,MEAN_MOTION_DOT,MEAN_MOTION_DDOT,TLE_LINE0,TLE_LINE1,TLE_LINE2,SEMIMAJOR_AXIS,PERIOD,APOGEE,PERIGEE,DECAYED
55934.0,STARLINK-5927,PAYLOAD,2024-05-06 11:56:18,14.98327159,0.0003062,69.9993,179.2382,270.997,89.0838,0.00020604,2.366e-05,0.0,0 STARLINK-5927,1 55934U 23037W   24127.49744171  .00002366  00000-0  20604-3 0  9996,2 55934  69.9993 179.2382 0003062 270.9970  89.0838 14.98327159 63633,6950.202,96.107,574.195,569.939,0.0
55934.0,STARLINK-5927,PAYLOAD,2024-05-07 13:34:27,14.98340065,0.0003038,69.9994,176.5452,271.2141,88.867,0.00017618,2.01e-05,0.0,0 STARLINK-5927,1 55934U 23037W   24128.56559212  .00002010  00000-0  17618-3 0  9992,2 55934  69.9994 176.5452 0003038 271.2141  88.8670 14.98340065 63798,6950.162,96.106,574.138,569.915,0.0
55934.0,STARLINK-5927,PAYLOAD,2024-05-08 05:35:48,14.98335023,0.0002927,69.9997,174.8621,271.4765,88.6059,-4.3955e-05,-6.17e-06,0.0,0 STARLINK-5927,1 55934U 23037W   24129.23319809 -.00000617  00000-0 -43955-4 0  9990,2 55934  69.9997 174.8621 0002927 271.4765  88.6059 14.98335023 63898,6950.177,96.107,574.077,570.008,0.0
55934.0,STARLINK-5927,PAYLOAD,2024-05-08 13:36:28,14.98334783,0.0002589,70.0003,174.0228,254.7445,105.3428,-5.1156e-05,-7.03e-06,0.0,0 STARLINK-5927,1 55934U 23037W   24129.56699676 -.00000703  00000-0 -51156-4 0  9997,2 55934  70.0003 174.0228 0002589 254.7445 105.3428 14.98334783 63605,6950.178,96.107,573.843,570.244,0.0
55934.0,STARLINK-5927,PAYLOAD,2024-05-08 20:01:00,14.9833663,0.0002962,69.9998,173.347,270.8825,89.1994,-6.8365e-05,-9.09e-06,0.0,0 STARLINK-5927,1 55934U 23037W   24129.83403445 -.00000909  00000-0 -68365-4 0  9992,2 55934  69.9998 173.3470 0002962 270.8825  89.1994 14.98336630 63646,6950.172,96.107,574.096,569.979,0.0
55934.0,STARLINK-5927,PAYLOAD,2024-05-09 05:37:49,14.98330212,0.0003098,69.9998,172.3387,271.2421,88.8383,-0.00012067,-1.533e-05,0.0,0 STARLINK-5927,1 55934U 23037W   24130.23459852 -.00001533  00000-0 -12067-3 0  9992,2 55934  69.9998 172.3387 0003098 271.2421  88.8383 14.98330212 64043,6950.192,96.107,574.21,569.904,0.0
55934.0,STARLINK-5927,PAYLOAD,2024-05-09 12:02:21,14.98327562,0.0003068,69.9999,171.6654,269.329,90.7518,-0.00014566,-1.83e-05,0.0,0 STARLINK-5927,1 55934U 23037W   24130.50164079 -.00001830  00000-0 -14566-3 0  9992,2 55934  69.9999 171.6654 0003068 269.3290  90.7518 14.98327562 63744,6950.2,96.107,574.198,569.933,0.0
55934.0,STARLINK-5927,PAYLOAD,2024-05-10 12:04:22,14.98327637,0.0003318,69.9992,169.139,269.3972,90.6807,9.8491e-05,1.082e-05,0.0,0 STARLINK-5927,1 55934U 23037W   24131.50303375  .00001082  00000-0  98491-4 0  9994,2 55934  69.9992 169.1390 0003318 269.3972  90.6807 14.98327637 64239,6950.2,96.107,574.371,569.759,0.0
55934.0,STARLINK-5927,PAYLOAD,2024-05-10 20:05:02,14.98333729,0.0003109,69.9992,168.2971,271.115,88.9653,2.3181e-05,1.84e-06,0.0,0 STARLINK-5927,1 55934U 23037W   24131.83683172  .00000184  00000-0  23181-4 0  9992,2 55934  69.9992 168.2971 0003109 271.1150  88.9653 14.98333729 63946,6950.181,96.107,574.207,569.886,0.0
55934.0,STARLINK-5927,PAYLOAD,2024-05-11 04:05:42,14.98335148,0.0003268,70.0009,167.4578,271.1629,88.9156,0.00014397,1.625e-05,0.0,0 STARLINK-5927,1 55934U 23037W   24132.17062602  .00001625  00000-0  14397-3 0  9998,2 55934  70.0009 167.4578 0003268 271.1629  88.9156 14.98335148 64338,6950.177,96.107,574.313,569.771,0.0
55934.0,STARLINK-5927,PAYLOAD,2024-05-11 12:06:20,14.98355981,0.0003004,69.9993,166.615,260.7739,99.308,0.00036231,4.236e-05,0.0,0 STARLINK-5927,1 55934U 23037W   24132.50440256  .00004236  00000-0  36231-3 0  9992,2 55934  69.9993 166.6150 0003004 260.7739  99.3080 14.98355981 64382,6950.113,96.105,574.065,569.89,0.0
55934.0,STARLINK-5927,PAYLOAD,2024-05-11 20:07:01,14.9834097,0.0002625,69.9991,165.7729,283.8935,76.1932,0.00013417,1.509e-05,0.0,0 STARLINK-5927,1 55934U 23037W   24132.83821747  .00001509  00000-0  13417-3 0  9997,2 55934  69.9991 165.7729 0002625 283.8935  76.1932 14.98340970 64431,6950.159,96.106,573.848,570.2,0.0
55934.0,STARLINK-5927,PAYLOAD,2024-05-12 05:43:53,14.98308534,0.0003228,69.999,164.7623,275.0654,85.0136,-0.00029345,-3.591e-05,0.0,0 STARLINK-5927,1 55934U 23037W   24133.23880819 -.00003591  00000-0 -29345-3 0  9999,2 55934  69.9990 164.7623 0003228 275.0654  85.0136 14.98308534 64494,6950.259,96.108,574.368,569.881,0.0
55934.0,STARLINK-5927,PAYLOAD,2024-05-12 12:08:25,14.98308686,0.0003214,69.9989,164.0891,275.6803,84.3989,-0.00027648,-3.389e-05,0.0,0 STARLINK-5927,1 55934U 23037W   24133.50585047 -.00003389  00000-0 -27648-3 0  9993,2 55934  69.9989 164.0891 0003214 275.6803  84.3989 14.98308686 64192,6950.259,96.108,574.358,569.89,0.0
55934.0,STARLINK-5927,PAYLOAD,2024-05-13 02:33:38,14.9831812,0.0003026,69.9988,162.5742,278.0001,82.0814,-0.00038868,-4.726e-05,0.0,0 STARLINK-5927,1 55934U 23037W   24134.10669480 -.00004726  00000-0 -38868-3 0  9996,2 55934  69.9988 162.5742 0003026 278.0001  82.0814 14.98318120 64621,6950.23,96.108,574.198,569.991,0.0
55934.0,STARLINK-5927,PAYLOAD,2024-05-13 12:10:27,14.98319924,0.0003073,69.999,161.5644,272.8461,87.2347,-0.00041217,-5.006e-05,0.0,0 STARLINK-5927,1 55934U 23037W   24134.50725746 -.00005006  00000-0 -41217-3 0  9992,2 55934  69.9990 161.5644 0003073 272.8461  87.2347 14.98319924 64348,6950.224,96.108,574.225,569.953,0.0
55934.0,STARLINK-5927,PAYLOAD,2024-05-13 18:34:58,14.98336589,0.0003252,69.9974,160.891,285.8121,74.2679,-0.00036725,-4.473e-05,0.0,0 STARLINK-5927,1 55934U 23037W   24134.77428832 -.00004473  00000-0 -36725-3 0  9992,2 55934  69.9974 160.8910 0003252 285.8121  74.2679 14.98336589 64726,6950.173,96.107,574.298,569.777,0.0
55934.0,STARLINK-5927,PAYLOAD,2024-05-14 04:11:47,14.9830898,0.0003705,69.9984,159.8806,280.4445,79.6296,0.00025782,2.983e-05,0.0,0 STARLINK-5927,1 55934U 23037W   24135.17485025  .00002983  00000-0  25782-3 0  9997,2 55934  69.9984 159.8806 0003705 280.4445  79.6296 14.98308980 64786,6950.258,96.108,574.698,569.548,0.0
55934.0,STARLINK-5927,PAYLOAD,2024-05-14 12:10:42,14.99656896,0.0005198,69.9985,159.0353,243.1202,116.9427,0.014904,0.00189028,0.0,0 STARLINK-5927,1 55934U 23037W   24135.50743485  .00189028  00000-0  14904-1 0  9999,2 55934  69.9985 159.0353 0005198 243.1202 116.9427 14.99656896 64831,6946.093,96.022,571.568,564.347,0.0
55934.0,STARLINK-5927,PAYLOAD,2024-05-14 22:00:00,14.98311913,0.0003367,70.0002,158.0107,280.1828,120.1736,0.005894,0.00070918,0.0,0 STARLINK-5927,1 55934U 23037W   24135.91667824  .00070918  00000-0  58940-2 0  9992,2 55934  70.0002 158.0107 0003367 280.1828 120.1736 14.98311913 64894,6950.249,96.108,574.454,569.774,0.0
55934.0,STARLINK-5927,PAYLOAD,2024-05-15 12:14:32,14.98270948,0.0002993,70.0,156.5161,277.7112,82.3707,-0.00034896,-4.248e-05,0.0,0 STARLINK-5927,1 55934U 23037W   24136.51009587 -.00004248  00000-0 -34896-3 0  9995,2 55934  70.0000 156.5161 0002993 277.7112  82.3707 14.98270948 64986,6950.376,96.111,574.321,570.16,0.0
55934.0,STARLINK-5927,PAYLOAD,2024-05-15 20:15:09,14.983186,0.0003538,70.0002,155.673,283.7102,76.3663,0.00011712,1.304e-05,0.0,0 STARLINK-5927,1 55934U 23037W   24136.84385483  .00001304  00000-0  11712-3 0  9993,2 55934  70.0002 155.6730 0003538 283.7102  76.3663 14.98318600 65031,6950.228,96.108,574.552,569.634,0.0
55934.0,STARLINK-5927,PAYLOAD,2024-05-16 04:15:48,14.98338801,0.0003073,69.9991,154.8308,276.6131,83.4678,-2.0262e-05,-3.35e-06,0.0,0 STARLINK-5927,1 55934U 23037W   24137.17764037 -.00000335  00000-0 -20262-4 0  9992,2 55934  69.9991 154.8308 0003073 276.6131  83.4678 14.98338801 65089,6950.166,96.106,574.166,569.895,0.0
55934.0,STARLINK-5927,PAYLOAD,2024-05-16 10:40:20,14.98337403,0.0003621,69.9984,154.1575,280.7305,79.3447,-5.0869e-05,-7e-06,0.0,0 STARLINK-5927,1 55934U 23037W   24137.44468021 -.00000700  00000-0 -50869-4 0  9998,2 55934  69.9984 154.1575 0003621 280.7305  79.3447 14.98337403 64789,6950.17,96.107,574.552,569.518,0.0
55934.0,STARLINK-5927,PAYLOAD,2024-05-16 18:41:00,14.98336017,0.00034,69.9991,153.3148,280.9737,79.1039,-8.7481e-05,-1.137e-05,0.0,0 STARLINK-5927,1 55934U 23037W   24137.77848076 -.00001137  00000-0 -87481-4 0  9991,2 55934  69.9991 153.3148 0003400 280.9737  79.1039 14.98336017 64831,6950.174,96.107,574.402,569.676,0.0
55934.0,STARLINK-5927,PAYLOAD,2024-05-17 04:17:48,14.98338199,0.0003507,69.9984,152.3065,280.3416,79.7348,-8.0321e-05,-1.052e-05,0.0,0 STARLINK-5927,1 55934U 23037W   24138.17903627 -.00001052  00000-0 -80321-4 0  9992,2 55934  69.9984 152.3065 0003507 280.3416  79.7348 14.98338199 65233,6950.168,96.106,574.47,569.595,0.0
55934.0,STARLINK-5927,PAYLOAD,2024-05-17 10:42:20,14.98341995,0.0003469,69.9984,151.6331,279.8756,80.2011,-3.9895e-05,-5.69e-06,0.0,0 STARLINK-5927,1 55934U 23037W   24138.44606981 -.00000569  00000-0 -39895-4 0  9997,2 55934  69.9984 151.6331 0003469 279.8756  80.2011 14.98341995 64936,6950.156,96.106,574.432,569.61,0.0
55934.0,STARLINK-5927,PAYLOAD,2024-05-17 18:43:00,14.98340024,0.0003495,69.9983,150.7914,277.3031,82.7731,-5.6945e-05,-7.73e-06,0.0,0 STARLINK-5927,1 55934U 23037W   24138.77986967 -.00000773  00000-0 -56945-4 0  9990,2 55934  69.9983 150.7914 0003495 277.3031  82.7731 14.98340024 64983,6950.162,96.106,574.456,569.598,0.0
55934.0,STARLINK-5927,PAYLOAD,2024-05-18 04:19:49,14.98337518,0.0003652,69.9983,149.7816,279.1795,80.8951,-3.1504e-05,-4.69e-06,0.0,0 STARLINK-5927,1 55934U 23037W   24139.18042831 -.00000469  00000-0 -31504-4 0  9995,2 55934  69.9983 149.7816 0003652 279.1795  80.8951 14.98337518 65386,6950.17,96.107,574.573,569.496,0.0
55934.0,STARLINK-5927,PAYLOAD,2024-05-18 10:44:20,14.98348604,0.0003674,69.9984,149.108,280.6135,79.4611,-0.00011936,-1.518e-05,0.0,0 STARLINK-5927,1 55934U 23037W   24139.44746140 -.00001518  00000-0 -11936-3 0  9990,2 55934  69.9984 149.1080 0003674 280.6135  79.4611 14.98348604 65423,6950.135,96.106,574.554,569.447,0.0
